[
    {
        "Altitude(m)": 607910.9966730216,
        "Argument of Periapsis(deg)": 0.0,
        "Eccentricity": 0.0,
        "Inclination(deg)": 60.0,
        "Latitude(deg)": -14.292874511647312,
        "Longitude(deg)": 153.44262965714842,
        "Mean Anomaly(deg)": 196.36360000000002,
        "RAAN(deg)": 65.0,
        "Satellite Name": "Test1 298",
        "Satellite Number": 298,
        "Semi-Major Axis(m)": 6980739.136638005,
        "Time(s)": 0
    },
    {
        "Altitude(m)": 608060.2299121245,
        "Argument of Periapsis(deg)": 0.00010418945913296404,
        "Eccentricity": 0.0,
        "Inclination(deg)": 60.0,
        "Latitude(deg)": -14.826536275573048,
        "Longitude(deg)": 153.7312383084469,
        "Mean Anomaly(deg)": 196.98370614546178,
        "RAAN(deg)": 64.99957995086025,
        "Satellite Name": "Test1 298",
        "Satellite Number": 298,
        "Semi-Major Axis(m)": 6980739.136638005,
        "Time(s)": 10
    }
]